NORAD_CAT_ID,OBJECT_NAME,OBJECT_TYPE,EPOCH,MEAN_MOTION,ECCENTRICITY,INCLINATION,RA_OF_ASC_NODE,ARG_OF_PERICENTER,MEAN_ANOMALY,BSTAR,MEAN_MOTION_DOT,MEAN_MOTION_DDOT,TLE_LINE0,TLE_LINE1,TLE_LINE2,SEMIMAJOR_AXIS,PERIOD,APOGEE,PERIGEE,DECAYED
51108.0,STARLINK-3362,PAYLOAD,2022-04-28 06:00:00,15.37228759,0.0001474,53.2176,147.3909,41.36,239.5549,-0.015328,-0.00529547,0.0,0 STARLINK-3362,1 51108U 22005E   22118.25001157 -.00529547  00000-0 -15328-1 0  9993,2 51108  53.2176 147.3909 0001474  41.3600 239.5549 15.37228759 16872,6832.445,93.675,455.318,453.30300000000005,0.0
51108.0,STARLINK-3362,PAYLOAD,2022-04-28 14:00:01,15.36858947,0.0001501,53.2174,145.8299,45.2985,281.098,-0.01896,-0.0064556,0.0,0 STARLINK-3362,1 51108U 22005E   22118.58334491 -.00645560  00000-0 -18960-1 0  9998,2 51108  53.2174 145.8299 0001501  45.2985 281.0980 15.36858947 16929,6833.541,93.698,456.432,454.381,0.0
51108.0,STARLINK-3362,PAYLOAD,2022-04-28 20:00:01,15.36517723,0.0001653,53.2177,144.6571,43.4016,226.7852,-0.019224,-0.0064723999999999,0.0,0 STARLINK-3362,1 51108U 22005E   22118.83334491 -.00647240  00000-0 -19224-1 0  9997,2 51108  53.2177 144.6571 0001653  43.4016 226.7852 15.36517723 16967,6834.553000000001,93.718,457.548,455.288,0.0
51108.0,STARLINK-3362,PAYLOAD,2022-04-29 06:00:00,15.35948083,0.0001885,53.2177,142.7075,31.0761,24.7414,-0.019593,-0.00647623,0.0,0 STARLINK-3362,1 51108U 22005E   22119.25001157 -.00647623  00000-0 -19593-1 0  9998,2 51108  53.2177 142.7075 0001885  31.0761  24.7414 15.35948083 17037,6836.243,93.753,459.397,456.819,0.0
51108.0,STARLINK-3362,PAYLOAD,2022-04-29 14:00:01,15.35491083,0.0001539,53.2172,141.1485,44.58,55.1262,-0.019783,-0.00644521,0.0,0 STARLINK-3362,1 51108U 22005E   22119.58334491 -.00644521  00000-0 -19783-1 0  9999,2 51108  53.2172 141.1485 0001539  44.5800  55.1262 15.35491083 17086,6837.599,93.781,460.517,458.412,0.0
51108.0,STARLINK-3362,PAYLOAD,2022-04-29 22:00:00,15.35035673,0.0001491,53.2173,139.5885,50.3227,92.7258,-0.020123,-0.00645961,0.0,0 STARLINK-3362,1 51108U 22005E   22119.91667824 -.00645961  00000-0 -20123-1 0  9994,2 51108  53.2173 139.5885 0001491  50.3227  92.7258 15.35035673 17134,6838.9519999999975,93.809,461.836,459.797,0.0
51108.0,STARLINK-3362,PAYLOAD,2022-04-30 06:00:00,15.34578282,0.0001971,53.2175,138.0325,36.8789,148.9632,-0.020323,-0.00643153,0.0,0 STARLINK-3362,1 51108U 22005E   22120.25001157 -.00643153  00000-0 -20323-1 0  9997,2 51108  53.2175 138.0325 0001971  36.8789 148.9632 15.34578282 17186,6840.31,93.837,463.524,460.827,0.0
51108.0,STARLINK-3362,PAYLOAD,2022-04-30 12:00:00,15.34234238,0.0001734,53.2173,136.8661,40.3262,87.25200000000002,-0.02041,-0.00639104,0.0,0 STARLINK-3362,1 51108U 22005E   22120.50001157 -.00639104  00000-0 -20410-1 0  9993,2 51108  53.2173 136.8661 0001734  40.3262  87.2520 15.34234238 17222,6841.333000000001,93.858,464.384,462.012,0.0
51108.0,STARLINK-3362,PAYLOAD,2022-04-30 14:00:01,15.34125539,0.0001699,53.2171,136.4767,45.0042,183.0824,-0.020783,-0.00647882,0.0,0 STARLINK-3362,1 51108U 22005E   22120.58334491 -.00647882  00000-0 -20783-1 0  9996,2 51108  53.2171 136.4767 0001699  45.0042 183.0824 15.34125539  3647,6841.656,93.865,464.684,462.359,0.0
51108.0,STARLINK-3362,PAYLOAD,2022-04-30 22:00:00,15.33564142,0.0001849,53.217,134.9197,42.5146,227.3259,-0.016107,-0.00496783,0.0,0 STARLINK-3362,1 51108U 22005E   22120.91667824 -.00496783  00000-0 -16107-1 0  9999,2 51108  53.2170 134.9197 0001849  42.5146 227.3259 15.33564142 17285,6843.326,93.899,466.456,463.925,0.0
51108.0,STARLINK-3362,PAYLOAD,2022-05-01 06:00:00,15.33212146,0.0001746,53.2174,133.3674,38.9185,272.0183,-0.021272,-0.00644394,0.0,0 STARLINK-3362,1 51108U 22005E   22121.25001157 -.00644394  00000-0 -21272-1 0  9990,2 51108  53.2174 133.3674 0001746  38.9185 272.0183 15.33212146 17333,6844.373000000001,93.92,467.4330000000001,465.043,0.0
51108.0,STARLINK-3362,PAYLOAD,2022-05-01 14:00:01,15.32758594,0.0001371,53.2172,131.8147,50.3375,301.2014,-0.021701,-0.00647723,0.0,0 STARLINK-3362,1 51108U 22005E   22121.58334491 -.00647723  00000-0 -21701-1 0  9992,2 51108  53.2172 131.8147 0001371  50.3375 301.2014 15.32758594 17386,6845.723000000001,93.948,468.527,466.65,0.0
51108.0,STARLINK-3362,PAYLOAD,2022-05-01 22:00:01,15.32299539,0.0001599,53.2173,130.2611,38.8043,352.8567,-0.021848,-0.00643089,0.0,0 STARLINK-3362,1 51108U 22005E   22121.91668981 -.00643089  00000-0 -21848-1 0  9996,2 51108  53.2173 130.2611 0001599  38.8043 352.8567 15.32299539 17442,6847.09,93.976,470.05,467.861,0.0
51108.0,STARLINK-3362,PAYLOAD,2022-05-02 06:00:00,15.31733113,0.000151,53.2171,128.7114,40.0711,31.0931,-0.0167949999999999,-0.00489345,0.0,0 STARLINK-3362,1 51108U 22005E   22122.25001157 -.00489345  00000-0 -16795-1 0  9998,2 51108  53.2171 128.7114 0001510  40.0711  31.0931 15.31733113 17496,6848.778,94.011,471.677,469.609,0.0
51108.0,STARLINK-3362,PAYLOAD,2022-05-02 14:00:01,15.31389526,0.0001579,53.2171,127.1624,45.4304,64.6334,-0.022531,-0.00644386,0.0,0 STARLINK-3362,1 51108U 22005E   22122.58334491 -.00644386  00000-0 -22531-1 0  9997,2 51108  53.2171 127.1624 0001579  45.4304  64.6334 15.31389526 17547,6849.803000000001,94.032,472.749,470.586,0.0
51108.0,STARLINK-3362,PAYLOAD,2022-05-02 22:00:01,15.30840332,0.0001918,53.2168,125.6119,31.029,117.5616,-0.018166,-0.005131,0.0,0 STARLINK-3362,1 51108U 22005E   22122.91668981 -.00513100  00000-0 -18166-1 0  9996,2 51108  53.2168 125.6119 0001918  31.0290 117.5616 15.30840332 17599,6851.441,94.066,474.62,471.992,0.0
51108.0,STARLINK-3362,PAYLOAD,2022-05-03 04:00:00,15.30592799,0.0001898,53.2174,124.4526,32.8986,54.0284,-0.023176,-0.0064641,0.0,0 STARLINK-3362,1 51108U 22005E   22123.16667824 -.00646410  00000-0 -23176-1 0  9997,2 51108  53.2174 124.4526 0001898  32.8986  54.0284 15.30592799 17635,6852.179,94.081,475.345,472.744,0.0
51108.0,STARLINK-3362,PAYLOAD,2022-05-03 14:00:01,15.3002367,0.0001656,53.2171,122.5197,48.2746,175.3847,-0.023623,-0.00647211,0.0,0 STARLINK-3362,1 51108U 22005E   22123.58334491 -.00647211  00000-0 -23623-1 0  9991,2 51108  53.2171 122.5197 0001656  48.2746 175.3847 15.30023670 17697,6853.879,94.116,476.879,474.609,0.0
51108.0,STARLINK-3362,PAYLOAD,2022-05-03 22:00:00,15.29566536,0.0001732,53.2172,120.9726,43.65,216.7808,-0.023877,-0.00645115,0.0,0 STARLINK-3362,1 51108U 22005E   22123.91667824 -.00645115  00000-0 -23877-1 0  9999,2 51108  53.2172 120.9726 0001732  43.6500 216.7808 15.29566536 17744,6855.244000000002,94.144,478.296,475.922,0.0
51108.0,STARLINK-3362,PAYLOAD,2022-05-04 06:00:02,15.29022983,0.0001662,53.2171,119.4296,52.5412,244.2198,-0.019427,-0.00518217,0.0,0 STARLINK-3362,1 51108U 22005E   22124.25002315 -.00518217  00000-0 -19427-1 0  9993,2 51108  53.2171 119.4296 0001662  52.5412 244.2198 15.29022983 17797,6856.869000000002,94.178,479.87300000000016,477.594,0.0
51108.0,STARLINK-3362,PAYLOAD,2022-05-04 12:00:00,15.28769336,0.0001617,53.217,118.2729,50.1883,183.2708,-0.024457,-0.00644709,0.0,0 STARLINK-3362,1 51108U 22005E   22124.50001157 -.00644709  00000-0 -24457-1 0  9999,2 51108  53.2170 118.2729 0001617  50.1883 183.2708 15.28769336 17833,6857.627,94.193,480.601,478.383,0.0
51108.0,STARLINK-3362,PAYLOAD,2022-05-04 14:00:01,15.28657122,0.0001456,53.2172,117.8866,49.9438,282.3827,-0.02469,-0.00648316,0.0,0 STARLINK-3362,1 51108U 22005E   22124.58334491 -.00648316  00000-0 -24690-1 0  9994,2 51108  53.2172 117.8866 0001456  49.9438 282.3827 15.28657122  3663,6857.9630000000025,94.2,480.826,478.829,0.0
51108.0,STARLINK-3362,PAYLOAD,2022-05-04 20:00:01,15.28311946,0.0001719,53.2173,116.7285,41.8841,226.9048,-0.024694,-0.00642056,0.0,0 STARLINK-3362,1 51108U 22005E   22124.83335648 -.00642056  00000-0 -24694-1 0  9996,2 51108  53.2173 116.7285 0001719  41.8841 226.9048 15.28311946 17887,6858.995,94.222,482.039,479.681,0.0
51108.0,STARLINK-3362,PAYLOAD,2022-05-04 22:00:01,15.28197839,0.0001654,53.2172,116.343,39.159,328.3605,-0.024792,-0.00642319,0.0,0 STARLINK-3362,1 51108U 22005E   22124.91668981 -.00642319  00000-0 -24792-1 0  9995,2 51108  53.2172 116.3430 0001654  39.1590 328.3605 15.28197839  3663,6859.337,94.229,482.336,480.067,0.0
51108.0,STARLINK-3362,PAYLOAD,2022-05-05 06:00:00,15.27660988,0.0001524,53.2174,114.8032,51.3981,350.6782,-0.020565,-0.00525533,0.0,0 STARLINK-3362,1 51108U 22005E   22125.25001157 -.00525533  00000-0 -20565-1 0  9991,2 51108  53.2174 114.8032 0001524  51.3981 350.6782 15.27660988 17952,6860.944,94.262,483.854,481.763,0.0
51108.0,STARLINK-3362,PAYLOAD,2022-05-05 14:00:01,15.27215159,0.0001695,53.217,113.2632,30.6219,45.4816,-0.021415,-0.00538885,0.0,0 STARLINK-3362,1 51108U 22005E   22125.58334491 -.00538885  00000-0 -21415-1 0  9996,2 51108  53.2170 113.2632 0001695  30.6219  45.4816 15.27215159 18000,6862.279,94.289,485.307,482.981,0.0
51108.0,STARLINK-3362,PAYLOAD,2022-05-05 22:00:00,15.26762883,0.0001969,53.2172,111.7228,21.3685,88.2183,-0.021901,-0.00543267,0.0,0 STARLINK-3362,1 51108U 22005E   22125.91667824 -.00543267  00000-0 -21901-1 0  9992,2 51108  53.2172 111.7228 0001969  21.3685  88.2183 15.26762883 18051,6863.634,94.317,486.85,484.147,0.0
51108.0,STARLINK-3362,PAYLOAD,2022-05-06 06:00:00,15.26377091,0.0002202,53.2172,110.1872,30.0444,112.4423,-0.026359,-0.00645754,0.0,0 STARLINK-3362,1 51108U 22005E   22126.25001157 -.00645754  00000-0 -26359-1 0  9997,2 51108  53.2172 110.1872 0002202  30.0444 112.4423 15.26377091 18106,6864.79,94.341,488.167,485.144,0.0
51108.0,STARLINK-3362,PAYLOAD,2022-05-06 14:00:01,15.25846246,0.0001875,53.2173,108.6495,34.1993,140.7225,-0.022684,-0.00552693,0.0,0 STARLINK-3362,1 51108U 22005E   22126.58334491 -.00552693  00000-0 -22684-1 0  9999,2 51108  53.2173 108.6495 0001875  34.1993 140.7225 15.25846246 18150,6866.382,94.374,489.535,486.96,0.0
